0 METEOR 2-17 DEB
1 38543U 88005AW  13284.85174839  .00002412  00000-0  14060-2 0   350
2 38543 082.5035 318.4295 0016803 198.2317 161.8689 14.08112024456668
0 METEOR 2-17 DEB
1 38543U 88005AW  13288.40462438  .00002630  00000-0  15320-2 0   363
2 38543 082.5310 315.5721 0020896 186.8500 173.4404 14.08136837457168
0 METEOR 2-17 DEB
1 38543U 88005AW  13294.37330092  .00002823  00000-0  16430-2 0   374
2 38543 082.5440 310.6714 0022674 162.9076 197.4809 14.08175377458000
